NORAD_CAT_ID,OBJECT_NAME,OBJECT_TYPE,EPOCH,MEAN_MOTION,ECCENTRICITY,INCLINATION,RA_OF_ASC_NODE,ARG_OF_PERICENTER,MEAN_ANOMALY,BSTAR,MEAN_MOTION_DOT,MEAN_MOTION_DDOT,TLE_LINE0,TLE_LINE1,TLE_LINE2,SEMIMAJOR_AXIS,PERIOD,APOGEE,PERIGEE,DECAYED
51870.0,STARLINK-3591,PAYLOAD,2023-11-01 21:20:23,15.0883933,0.0001756,53.2166,264.4273,82.8049,277.3143,0.00016228,2.296e-05,0.0,0 STARLINK-3591,1 51870U 22022U   23305.88916582  .00002296  00000-0  16228-3 0  9990,2 51870  53.2166 264.4273 0001756  82.8049 277.3143 15.08839330 93519,6917.882,95.438,540.962,538.533,0.0
51870.0,STARLINK-3591,PAYLOAD,2023-11-02 06:52:42,15.08852124,0.0001566,53.2156,262.6409,94.5804,265.5367,0.00031228,4.687e-05,0.0,0 STARLINK-3591,1 51870U 22022U   23306.28659900  .00004687  00000-0  31228-3 0  9996,2 51870  53.2156 262.6409 0001566  94.5804 265.5367 15.08852124 93576,6917.843,95.437,540.792,538.625,0.0
51870.0,STARLINK-3591,PAYLOAD,2023-11-02 14:49:37,15.08844974,0.0001459,53.2163,261.1545,99.219,260.8967,0.00016533,2.345e-05,0.0,0 STARLINK-3591,1 51870U 22022U   23306.61780044  .00002345  00000-0  16533-3 0  9998,2 51870  53.2163 261.1545 0001459  99.2190 260.8967 15.08844974 93624,6917.865,95.437,540.74,538.721,0.0
51870.0,STARLINK-3591,PAYLOAD,2023-11-03 06:43:29,15.08855624,0.0001703,53.2165,258.1797,101.288,258.8303,0.00056098,8.655e-05,0.0,0 STARLINK-3591,1 51870U 22022U   23307.28019738  .00008655  00000-0  56098-3 0  9997,2 51870  53.2165 258.1797 0001703 101.2880 258.8303 15.08855624 93729,6917.833,95.437,540.876,538.52,0.0
51870.0,STARLINK-3591,PAYLOAD,2023-11-03 21:01:57,15.08840972,0.0001727,53.2165,255.5034,95.2935,264.8254,0.00018336,2.631e-05,0.0,0 STARLINK-3591,1 51870U 22022U   23307.87636293  .00002631  00000-0  18336-3 0  9994,2 51870  53.2165 255.5034 0001727  95.2935 264.8254 15.08840972 93815,6917.877,95.437,540.937,538.548,0.0
51870.0,STARLINK-3591,PAYLOAD,2023-11-04 06:34:16,15.0884342,0.000137,53.2162,253.7188,86.033,274.0819,0.00049228,7.556e-05,0.0,0 STARLINK-3591,1 51870U 22022U   23308.27380281  .00007556  00000-0  49228-3 0  9997,2 51870  53.2162 253.7188 0001370  86.0330 274.0819 15.08843420 93870,6917.87,95.437,540.683,538.787,0.0
51870.0,STARLINK-3591,PAYLOAD,2023-11-05 03:14:17,15.08860148,0.0001304,53.2161,249.8533,94.7061,265.408,0.00070055,0.00010885,0.0,0 STARLINK-3591,1 51870U 22022U   23309.13491948  .00010885  00000-0  70055-3 0  9997,2 51870  53.2161 249.8533 0001304  94.7061 265.4080 15.08860148 94009,6917.819,95.436,540.586,538.782,0.0
51870.0,STARLINK-3591,PAYLOAD,2023-11-05 12:46:35,15.08856307,0.0001378,53.2164,248.0713,95.6873,264.4276,0.00053185,8.19e-05,0.0,0 STARLINK-3591,1 51870U 22022U   23309.53235719  .00008190  00000-0  53185-3 0  9994,2 51870  53.2164 248.0713 0001378  95.6873 264.4276 15.08856307 94069,6917.831,95.437,540.649,538.742,0.0
51870.0,STARLINK-3591,PAYLOAD,2023-11-06 03:05:02,15.08894207,0.0001238,53.2158,245.3921,76.0875,284.0255,0.0010917,0.00017155,0.0,0 STARLINK-3591,1 51870U 22022U   23310.12849761  .00017155  00000-0  10917-2 0  9995,2 51870  53.2158 245.3921 0001238  76.0875 284.0255 15.08894207 94159,6917.715,95.434,540.436,538.723,0.0
51870.0,STARLINK-3591,PAYLOAD,2023-11-06 12:37:20,15.08878138,0.0001533,53.2163,243.6078,67.0968,293.0186,0.00047439,7.278e-05,0.0,0 STARLINK-3591,1 51870U 22022U   23310.52593200  .00007278  00000-0  47439-3 0  9998,2 51870  53.2163 243.6078 0001533  67.0968 293.0186 15.08878138 94215,6917.764,95.435,540.689,538.568,0.0
51870.0,STARLINK-3591,PAYLOAD,2023-11-07 02:55:51,15.0880095,0.0001459,53.2158,240.9341,79.0405,281.0752,-0.0010193,-0.00016456,0.0,0 STARLINK-3591,1 51870U 22022U   23311.12212304 -.00016456  00000-0 -10193-2 0  9994,2 51870  53.2158 240.9341 0001459  79.0405 281.0752 15.08800950 94301,6918.0,95.44,540.874,538.855,0.0
51870.0,STARLINK-3591,PAYLOAD,2023-11-07 06:06:37,15.08800742,0.0001359,53.2157,240.3388,85.2901,274.8246,-0.00094382,-0.00015261,0.0,0 STARLINK-3591,1 51870U 22022U   23311.25460479 -.00015261  00000-0 -94382-3 0  9992,2 51870  53.2157 240.3388 0001359  85.2901 274.8246 15.08800742 94323,6918.0,95.44,540.806,538.925,0.0
51870.0,STARLINK-3591,PAYLOAD,2023-11-08 02:46:38,15.08842972,0.0001429,53.2167,236.4731,80.1106,280.0047,-0.00017649,-3.096e-05,0.0,0 STARLINK-3591,1 51870U 22022U   23312.11572393 -.00003096  00000-0 -17649-3 0  9991,2 51870  53.2167 236.4731 0001429  80.1106 280.0047 15.08842972 94454,6917.871,95.437,540.725,538.748,0.0
51870.0,STARLINK-3591,PAYLOAD,2023-11-08 04:22:01,15.08844303,0.0001333,53.2165,236.1756,86.8878,273.2266,-0.00013026,-2.361e-05,0.0,0 STARLINK-3591,1 51870U 22022U   23312.18196314 -.00002361  00000-0 -13026-3 0  9992,2 51870  53.2165 236.1756 0001333  86.8878 273.2266 15.08844303 94467,6917.867,95.437,540.654,538.81,0.0
51870.0,STARLINK-3591,PAYLOAD,2023-11-09 01:02:03,15.08830362,0.0001325,53.2163,232.3103,94.399,265.7154,0.00068282,0.00010593,0.0,0 STARLINK-3591,1 51870U 22022U   23313.04309707  .00010593  00000-0  68282-3 0  9998,2 51870  53.2163 232.3103 0001325  94.3990 265.7154 15.08830362 94595,6917.91,95.438,540.691,538.858,0.0
51870.0,STARLINK-3591,PAYLOAD,2023-11-10 04:03:35,15.08855674,0.000135,53.2167,227.254,99.5057,260.6087,0.00021659,3.162e-05,0.0,0 STARLINK-3591,1 51870U 22022U   23314.16916437  .00003162  00000-0  21659-3 0  9997,2 51870  53.2167 227.2540 0001350  99.5057 260.6087 15.08855674 94767,6917.832,95.437,540.631,538.764,0.0
51870.0,STARLINK-3591,PAYLOAD,2023-11-10 12:00:32,15.0883855,0.0001788,53.2162,225.7683,91.1899,268.9298,-2.6644e-05,-7.12e-06,0.0,0 STARLINK-3591,1 51870U 22022U   23314.50037589 -.00000712  00000-0 -26644-4 0  9997,2 51870  53.2162 225.7683 0001788  91.1899 268.9298 15.08838550 94815,6917.885,95.438,540.987,538.513,0.0
51870.0,STARLINK-3591,PAYLOAD,2023-11-11 00:43:36,15.08844103,0.000149,53.2172,223.3891,92.1054,268.0109,-0.00012861,-2.334e-05,0.0,0 STARLINK-3591,1 51870U 22022U   23315.03028762 -.00002334  00000-0 -12861-3 0  9996,2 51870  53.2172 223.3891 0001490  92.1054 268.0109 15.08844103 94896,6917.868,95.437,540.764,538.702,0.0
51870.0,STARLINK-3591,PAYLOAD,2023-11-11 21:23:38,15.08839086,0.0001462,53.217,219.5235,97.0789,263.0369,-1.163e-05,-4.73e-06,0.0,0 STARLINK-3591,1 51870U 22022U   23315.89141255 -.00000473  00000-0 -11630-4 0  9999,2 51870  53.2170 219.5235 0001462  97.0789 263.0369 15.08839086 95024,6917.883,95.438,540.76,538.737,0.0
51870.0,STARLINK-3591,PAYLOAD,2023-11-12 10:06:43,15.08840033,0.0001438,53.2168,217.1446,96.2547,263.8609,3.4372e-05,2.59e-06,0.0,0 STARLINK-3591,1 51870U 22022U   23316.42133299  .00000259  00000-0  34372-4 0  9996,2 51870  53.2168 217.1446 0001438  96.2547 263.8609 15.08840033 95103,6917.88,95.438,540.74,538.75,0.0
51870.0,STARLINK-3591,PAYLOAD,2023-11-12 21:14:25,15.08832048,0.00014,53.2179,215.0663,93.8623,266.2529,0.00015084,2.113e-05,0.0,0 STARLINK-3591,1 51870U 22022U   23316.88501971  .00002113  00000-0  15084-3 0  9991,2 51870  53.2179 215.0663 0001400  93.8623 266.2529 15.08832048 95172,6917.905,95.438,540.738,538.801,0.0
51870.0,STARLINK-3591,PAYLOAD,2023-11-12 22:49:48,15.0884701,0.0002122,53.2177,214.7693,90.219,269.9045,-6.2616e-05,-1.285e-05,0.0,0 STARLINK-3591,1 51870U 22022U   23316.95125454 -.00001285  00000-0 -62616-4 0  9992,2 51870  53.2177 214.7693 0002122  90.2190 269.9045 15.08847010 95180,6917.859,95.437,541.192,538.256,0.0
51870.0,STARLINK-3591,PAYLOAD,2023-11-14 16:09:50,15.08826832,0.0001378,53.2158,207.0339,84.3459,275.7691,0.00030042,4.495e-05,0.0,0 STARLINK-3591,1 51870U 22022U   23318.67350355  .00004495  00000-0  30042-3 0  9994,2 51870  53.2158 207.0339 0001378  84.3459 275.7691 15.08826832 95445,6917.921,95.438,540.739,538.832,0.0
51870.0,STARLINK-3591,PAYLOAD,2023-11-15 01:42:08,15.08843281,0.0001447,53.2165,205.2522,97.9893,262.1264,0.00010503,1.384e-05,0.0,0 STARLINK-3591,1 51870U 22022U   23319.07093582  .00001384  00000-0  10503-3 0  9999,2 51870  53.2165 205.2522 0001447  97.9893 262.1264 15.08843281 95506,6917.87,95.437,540.736,538.734,0.0
51870.0,STARLINK-3591,PAYLOAD,2023-11-15 22:22:03,15.08933071,0.0003405,53.2158,201.3784,111.7902,248.3452,0.00084345,0.00013196,0.0,0 STARLINK-3591,1 51870U 22022U   23319.93198168  .00013196  00000-0  84345-3 0  9999,2 51870  53.2158 201.3784 0003405 111.7902 248.3452 15.08933071 95633,6917.596,95.432,541.816,537.105,0.0
51870.0,STARLINK-3591,PAYLOAD,2023-11-16 03:08:18,15.08850464,0.0001453,53.2158,200.4941,85.9263,274.1895,0.00012733,1.74e-05,0.0,0 STARLINK-3591,1 51870U 22022U   23320.13077004  .00001740  00000-0  12733-3 0  9992,2 51870  53.2158 200.4941 0001453  85.9263 274.1895 15.08850464 95666,6917.848,95.437,540.719,538.708,0.0
51870.0,STARLINK-3591,PAYLOAD,2023-11-16 07:54:29,15.08833336,0.0001487,53.2158,199.6016,81.8196,278.2965,-2.4735e-05,-6.82e-06,0.0,0 STARLINK-3591,1 51870U 22022U   23320.32950421 -.00000682  00000-0 -24735-4 0  9998,2 51870  53.2158 199.6016 0001487  81.8196 278.2965 15.08833336 95690,6917.901,95.438,540.794,538.737,0.0
51870.0,STARLINK-3591,PAYLOAD,2023-11-16 22:12:56,15.08840518,0.0001441,53.2159,196.9247,86.2337,273.882,3.4729e-05,2.65e-06,0.0,0 STARLINK-3591,1 51870U 22022U   23320.92565890  .00000265  00000-0  34729-4 0  9995,2 51870  53.2159 196.9247 0001441  86.2337 273.8820 15.08840518 95784,6917.879,95.438,540.741,538.747,0.0
51870.0,STARLINK-3591,PAYLOAD,2023-11-17 02:59:06,15.08843619,0.0001454,53.2147,196.0325,86.2382,273.8776,9.9731e-05,1.3e-05,0.0,0 STARLINK-3591,1 51870U 22022U   23321.12437605  .00001300  00000-0  99731-4 0  9995,2 51870  53.2147 196.0325 0001454  86.2382 273.8776 15.08843619 95812,6917.869,95.437,540.74,538.728,0.0
51870.0,STARLINK-3591,PAYLOAD,2023-11-17 14:06:48,15.08840908,0.0001456,53.2143,193.9509,85.2774,274.8385,0.0001466,2.046e-05,0.0,0 STARLINK-3591,1 51870U 22022U   23321.58805826  .00002046  00000-0  14660-3 0  9994,2 51870  53.2143 193.9509 0001456  85.2774 274.8385 15.08840908 95886,6917.878,95.437,540.75,538.735,0.0
